NORAD_CAT_ID,OBJECT_NAME,OBJECT_TYPE,EPOCH,MEAN_MOTION,ECCENTRICITY,INCLINATION,RA_OF_ASC_NODE,ARG_OF_PERICENTER,MEAN_ANOMALY,BSTAR,MEAN_MOTION_DOT,MEAN_MOTION_DDOT,TLE_LINE0,TLE_LINE1,TLE_LINE2,SEMIMAJOR_AXIS,PERIOD,APOGEE,PERIGEE,DECAYED
55770.0,STARLINK-5557,PAYLOAD,2023-06-13 22:00:00,15.51208148,0.0003547,69.9999,228.383,271.9345,245.8712,0.0001605,9.269e-05,0.0,0 STARLINK-5557,1 55770U 23028AF  23164.91667824  .00009269  00000-0  16050-3 0  9999,2 55770  69.9999 228.3830 0003547 271.9345 245.8712 15.51208148  1301,6791.335,92.831,415.608,410.791,0.0
55770.0,STARLINK-5557,PAYLOAD,2023-06-14 06:00:00,15.51252849,0.0003561,70.0,227.472,269.7065,308.9863,-0.00059618,-0.00035066,0.0,0 STARLINK-5557,1 55770U 23028AF  23165.25001157 -.00035066  00000-0 -59618-3 0  9991,2 55770  70.0000 227.4720 0003561 269.7065 308.9863 15.51252849 16733,6791.204,92.828,415.487,410.651,0.0
55770.0,STARLINK-5557,PAYLOAD,2023-06-14 14:00:01,15.51246039,0.0003574,69.9997,226.5607,276.6679,2.9545,-0.0014239,-0.00083002,0.0,0 STARLINK-5557,1 55770U 23028AF  23165.58334491 -.00083002  00000-0 -14239-2 0  9999,2 55770  69.9997 226.5607 0003574 276.6679   2.9545 15.51246039  1300,6791.224,92.829,415.516,410.662,0.0
55770.0,STARLINK-5557,PAYLOAD,2023-06-14 22:00:00,15.51370734,0.000368,69.9997,225.6493,269.2799,71.2471,-0.013714,-0.00748188,0.0,0 STARLINK-5557,1 55770U 23028AF  23165.91667824 -.00748188  00000-0 -13714-1 0  9994,2 55770  69.9997 225.6493 0003680 269.2799  71.2471 15.51370734 16844,6790.86,92.821,415.224,410.226,0.0
55770.0,STARLINK-5557,PAYLOAD,2023-06-15 06:00:00,15.50854061,0.0003683,70.0001,224.7383,270.0646,131.2316,-0.018065,-0.00960452,0.0,0 STARLINK-5557,1 55770U 23028AF  23166.25001157 -.00960452  00000-0 -18065-1 0  9997,2 55770  70.0001 224.7383 0003683 270.0646 131.2316 15.50854061 16894,6792.368,92.852,416.735,411.732,0.0
55770.0,STARLINK-5557,PAYLOAD,2023-06-15 14:00:01,15.50168633,0.0003508,69.9999,223.8279,277.6357,183.7124,-0.017225,-0.00886836,0.0,0 STARLINK-5557,1 55770U 23028AF  23166.58334491 -.00886836  00000-0 -17225-1 0  9993,2 55770  69.9999 223.8279 0003508 277.6357 183.7124 15.50168633  1301,6794.37,92.893,418.619,413.852,0.0
55770.0,STARLINK-5557,PAYLOAD,2023-06-15 20:00:01,15.49682326,0.0003423,69.9995,223.1457,273.9026,141.9671,-0.017997,-0.0092103,0.0,0 STARLINK-5557,1 55770U 23028AF  23166.83334491 -.00921030  00000-0 -17997-1 0  9993,2 55770  69.9995 223.1457 0003423 273.9026 141.9671 15.49682326 16987,6795.792,92.922,419.983,415.33,0.0
55770.0,STARLINK-5557,PAYLOAD,2023-06-16 14:00:01,15.48207708,0.0003339,69.9996,221.1021,274.882,1.9005,-0.018354,-0.0088215,0.0,0 STARLINK-5557,1 55770U 23028AF  23167.58334491 -.00882150  00000-0 -18354-1 0  9993,2 55770  69.9996 221.1021 0003339 274.8820   1.9005 15.48207708  1303,6800.106,93.011,424.242,419.701,0.0
55770.0,STARLINK-5557,PAYLOAD,2023-06-16 22:00:00,15.4753156,0.0003397,69.9993,220.1954,270.6474,63.057,-0.018065,-0.00850897,0.0,0 STARLINK-5557,1 55770U 23028AF  23167.91667824 -.00850897  00000-0 -18065-1 0  9991,2 55770  69.9993 220.1954 0003397 270.6474  63.0570 15.47531560 17158,6802.087,93.051,426.262,421.641,0.0
55770.0,STARLINK-5557,PAYLOAD,2023-06-17 12:05:39,15.48130755,0.0004332,69.9966,218.6044,263.6449,96.4242,-0.0051671,-0.00263528,0.0,0 STARLINK-5557,1 55770U 23028AF  23168.50392455 -.00263528  00000-0 -51671-2 0  9992,2 55770  69.9966 218.6044 0004332 263.6449  96.4242 15.48130755 17253,6800.331,93.015,425.142,419.251,0.0
55770.0,STARLINK-5557,PAYLOAD,2023-06-17 13:38:50,15.47989691,0.0003817,69.9965,218.4288,277.9687,82.1064,-0.005425,-0.0027489,0.0,0 STARLINK-5557,1 55770U 23028AF  23168.56864320 -.00274890  00000-0 -54250-2 0  9993,2 55770  69.9965 218.4288 0003817 277.9687  82.1064 15.47989691 17264,6800.745,93.024,425.205,420.014,0.0
55770.0,STARLINK-5557,PAYLOAD,2023-06-17 14:00:01,15.4625147,0.0003399,69.9989,218.3847,277.249,167.9246,-0.01964,-0.00893736,0.0,0 STARLINK-5557,1 55770U 23028AF  23168.58334491 -.00893736  00000-0 -19640-1 0  9995,2 55770  69.9989 218.3847 0003399 277.2490 167.9246 15.46251470 17259,6805.84,93.128,430.019,425.392,0.0
55770.0,STARLINK-5557,PAYLOAD,2023-06-18 06:00:00,15.44976713,0.0003379,69.9991,216.5776,268.8947,284.6231,-0.022015,-0.00953532,0.0,0 STARLINK-5557,1 55770U 23028AF  23169.25001157 -.00953532  00000-0 -22015-1 0  9991,2 55770  69.9991 216.5776 0003379 268.8947 284.6231 15.44976713 17358,6809.583,93.205,433.749,429.148,0.0
55770.0,STARLINK-5557,PAYLOAD,2023-06-18 12:56:58,15.4612665,0.0004414,69.9966,215.7978,274.0591,86.0088,-0.0056794,-0.00270019,0.0,0 STARLINK-5557,1 55770U 23028AF  23169.53956674 -.00270019  00000-0 -56794-2 0  9999,2 55770  69.9966 215.7978 0004414 274.0591  86.0088 15.46126650 17410,6806.207,93.136,431.076,425.067,0.0
55770.0,STARLINK-5557,PAYLOAD,2023-06-18 22:00:00,15.43613881,0.0003516,69.9985,214.7737,267.063,31.6884,-0.020366,-0.00839433,0.0,0 STARLINK-5557,1 55770U 23028AF  23169.91667824 -.00839433  00000-0 -20366-1 0  9993,2 55770  69.9985 214.7737 0003516 267.0630  31.6884 15.43613881 17460,6813.591,93.288,437.852,433.06,0.0
55770.0,STARLINK-5557,PAYLOAD,2023-06-19 12:16:51,15.44263517,0.0003845,69.9969,213.17,266.1563,93.918,-0.0062092,-0.00276731,0.0,0 STARLINK-5557,1 55770U 23028AF  23170.51170497 -.00276731  00000-0 -62092-2 0  9995,2 55770  69.9969 213.1700 0003845 266.1563  93.9180 15.44263517 17553,6811.68,93.248,436.164,430.926,0.0
55770.0,STARLINK-5557,PAYLOAD,2023-06-19 22:00:00,15.41656043,0.0003495,69.9983,212.0746,271.0545,179.6614,-0.02173,-0.00849407,0.0,0 STARLINK-5557,1 55770U 23028AF  23170.91667824 -.00849407  00000-0 -21730-1 0  9993,2 55770  69.9983 212.0746 0003495 271.0545 179.6614 15.41656043 17611,6819.358,93.406,443.607,438.84,0.0
55770.0,STARLINK-5557,PAYLOAD,2023-06-20 06:00:02,15.41062325,0.0003454,69.9985,211.1766,271.6703,228.1854,-0.025242,-0.00957546,0.0,0 STARLINK-5557,1 55770U 23028AF  23171.25002315 -.00957546  00000-0 -25242-1 0  9995,2 55770  69.9985 211.1766 0003454 271.6703 228.1854 15.41062325 17667,6821.11,93.442,445.331,440.619,0.0
55770.0,STARLINK-5557,PAYLOAD,2023-06-20 14:00:01,15.4038858,0.0003382,69.9982,210.2796,275.5149,272.5849,-0.02427,-0.00904748,0.0,0 STARLINK-5557,1 55770U 23028AF  23171.58334491 -.00904748  00000-0 -24270-1 0  9990,2 55770  69.9982 210.2796 0003382 275.5149 272.5849 15.40388580  1308,6823.099,93.483,447.271,442.656,0.0
55770.0,STARLINK-5557,PAYLOAD,2023-06-20 22:00:00,15.39698174,0.0003361,69.9983,209.3836,268.8884,326.7501,-0.023085,-0.00845807,0.0,0 STARLINK-5557,1 55770U 23028AF  23171.91667824 -.00845807  00000-0 -23085-1 0  9999,2 55770  69.9983 209.3836 0003361 268.8884 326.7501 15.39698174 17777,6825.138,93.525,449.297,444.709,0.0
55770.0,STARLINK-5557,PAYLOAD,2023-06-21 06:00:00,15.39100025,0.0003462,69.9983,208.4885,269.998,12.3714,-0.026674,-0.00948983,0.0,0 STARLINK-5557,1 55770U 23028AF  23172.25001157 -.00948983  00000-0 -26674-1 0  9994,2 55770  69.9983 208.4885 0003462 269.9980  12.3714 15.39100025 17825,6826.906,93.561,451.135,446.408,0.0
55770.0,STARLINK-5557,PAYLOAD,2023-06-21 14:00:01,15.38443802,0.0003543,69.998,207.5941,275.4607,52.8632,-0.026421,-0.00922305,0.0,0 STARLINK-5557,1 55770U 23028AF  23172.58334491 -.00922305  00000-0 -26421-1 0  9990,2 55770  69.9980 207.5941 0003543 275.4607  52.8632 15.38443802  1309,6828.848,93.601,453.132,448.293,0.0
55770.0,STARLINK-5557,PAYLOAD,2023-06-21 22:00:01,15.37738947,0.0003665,69.9982,206.7006,268.7974,104.7844,-0.024307,-0.00836017,0.0,0 STARLINK-5557,1 55770U 23028AF  23172.91668981 -.00836017  00000-0 -24307-1 0  9996,2 55770  69.9982 206.7006 0003665 268.7974 104.7844 15.37738947 17924,6830.934,93.644,455.303,450.296,0.0
55770.0,STARLINK-5557,PAYLOAD,2023-06-22 06:00:00,15.37141035,0.0003397,69.9985,205.8082,270.4671,147.4396,-0.028442,-0.00949101,0.0,0 STARLINK-5557,1 55770U 23028AF  23173.25001157 -.00949101  00000-0 -28442-1 0  9993,2 55770  69.9985 205.8082 0003397 270.4671 147.4396 15.37141035 17974,6832.705,93.68,456.891,452.249,0.0
55770.0,STARLINK-5557,PAYLOAD,2023-06-22 20:00:01,15.35953098,0.0003317,69.9984,204.248,270.1456,133.5837,-0.026725,-0.00865066,0.0,0 STARLINK-5557,1 55770U 23028AF  23173.83334491 -.00865066  00000-0 -26725-1 0  9996,2 55770  69.9984 204.2480 0003317 270.1456 133.5837 15.35953098 18063,6836.228,93.753,460.361,455.825,0.0
55770.0,STARLINK-5557,PAYLOAD,2023-06-23 06:00:00,15.35174492,0.0003216,69.9988,203.1355,269.3175,277.0869,-0.029701,-0.00931686,0.0,0 STARLINK-5557,1 55770U 23028AF  23174.25001157 -.00931686  00000-0 -29701-1 0  9992,2 55770  69.9988 203.1355 0003216 269.3175 277.0869 15.35174492 18121,6838.539,93.8,462.604,458.205,0.0
55770.0,STARLINK-5557,PAYLOAD,2023-06-24 14:00:01,15.32580513,0.0003309,69.9987,199.5842,272.41,74.3572,-0.032606,-0.0094103,0.0,0 STARLINK-5557,1 55770U 23028AF  23175.58334491 -.00941030  00000-0 -32606-1 0  9991,2 55770  69.9987 199.5842 0003309 272.4100  74.3572 15.32580513 18339,6846.253,93.959,470.384,465.853,0.0
55770.0,STARLINK-5557,PAYLOAD,2023-06-25 14:00:01,15.30625186,0.0003109,69.9987,196.9301,274.2689,184.5642,-0.034762,-0.00943359,0.0,0 STARLINK-5557,1 55770U 23028AF  23176.58334491 -.00943359  00000-0 -34762-1 0  9993,2 55770  69.9987 196.9301 0003109 274.2689 184.5642 15.30625186 18482,6852.083,94.079,476.078,471.818,0.0
55770.0,STARLINK-5557,PAYLOAD,2023-06-26 14:00:01,15.28670656,0.0002998,69.9986,194.2843,271.9485,291.9105,-0.037169,-0.00961126,0.0,0 STARLINK-5557,1 55770U 23028AF  23177.58334491 -.00961126  00000-0 -37169-1 0  9990,2 55770  69.9986 194.2843 0002998 271.9485 291.9105 15.28670656 18639,6857.922,94.199,481.843,477.731,0.0
55770.0,STARLINK-5557,PAYLOAD,2023-06-27 02:00:01,15.27704869,0.0003205,69.999,192.9644,268.1455,165.5823,-0.039011,-0.0097802,0.0,0 STARLINK-5557,1 55770U 23028AF  23178.08334491 -.00978020  00000-0 -39011-1 0  9995,2 55770  69.9990 192.9644 0003205 268.1455 165.5823 15.27704869 18710,6860.812,94.259,484.876,480.478,0.0
